NORAD_CAT_ID,OBJECT_NAME,OBJECT_TYPE,EPOCH,MEAN_MOTION,ECCENTRICITY,INCLINATION,RA_OF_ASC_NODE,ARG_OF_PERICENTER,MEAN_ANOMALY,BSTAR,MEAN_MOTION_DOT,MEAN_MOTION_DDOT,TLE_LINE0,TLE_LINE1,TLE_LINE2,SEMIMAJOR_AXIS,PERIOD,APOGEE,PERIGEE,DECAYED
55408.0,STARLINK-5092,PAYLOAD,2024-01-28 21:27:58,14.98328457,0.000274,70.0003,208.0705,267.7269,92.3576,-3.6238e-05,-5.25e-06,0.0,0 STARLINK-5092,1 55408U 23014T   24028.89443261 -.00000525  00000-0 -36238-4 0  9995,2 55408  70.0003 208.0705 0002740 267.7269  92.3576 14.98328457 56596,6950.198,96.107,573.967,570.158,0.0
55408.0,STARLINK-5092,PAYLOAD,2024-01-29 21:29:59,14.98331665,0.000285,70.0,205.5453,269.4191,90.6641,4.8093e-05,4.81e-06,0.0,0 STARLINK-5092,1 55408U 23014T   24029.89582776  .00000481  00000-0  48093-4 0  9992,2 55408  70.0000 205.5453 0002850 269.4191  90.6641 14.98331665 56746,6950.188,96.107,574.034,570.072,0.0
55408.0,STARLINK-5092,PAYLOAD,2024-01-30 13:31:20,14.98329423,0.0002881,69.9998,203.8613,269.9535,90.1294,1.0721e-05,3.5e-07,0.0,0 STARLINK-5092,1 55408U 23014T   24030.56342973  .00000035  00000-0  10721-4 0  9993,2 55408  69.9998 203.8613 0002881 269.9535  90.1294 14.98329423 56848,6950.195,96.107,574.062,570.057,0.0
55408.0,STARLINK-5092,PAYLOAD,2024-01-30 21:32:00,14.983309,0.0002869,69.9999,203.0199,269.8573,90.2258,2.613e-05,2.19e-06,0.0,0 STARLINK-5092,1 55408U 23014T   24030.89722823  .00000219  00000-0  26130-4 0  9990,2 55408  69.9999 203.0199 0002869 269.8573  90.2258 14.98330900 56895,6950.19,96.107,574.049,570.061,0.0
55408.0,STARLINK-5092,PAYLOAD,2024-01-31 11:57:13,14.98331703,0.0002801,70.0001,201.5049,270.6893,89.3945,-1.8699e-05,-3.16e-06,0.0,0 STARLINK-5092,1 55408U 23014T   24031.49806852 -.00000316  00000-0 -18699-4 0  9993,2 55408  70.0001 201.5049 0002801 270.6893  89.3945 14.98331703 56984,6950.188,96.107,573.999,570.106,0.0
55408.0,STARLINK-5092,PAYLOAD,2024-01-31 21:34:01,14.98331778,0.0002798,70.0002,200.4949,271.0813,89.0026,-1.4097e-05,-2.61e-06,0.0,0 STARLINK-5092,1 55408U 23014T   24031.89862782 -.00000261  00000-0 -14097-4 0  9998,2 55408  70.0002 200.4949 0002798 271.0813  89.0026 14.98331778 57041,6950.187,96.107,573.997,570.108,0.0
55408.0,STARLINK-5092,PAYLOAD,2024-02-01 11:59:14,14.98328249,0.0002726,70.0004,198.9804,271.3366,88.7481,-3.5414e-06,-1.35e-06,0.0,0 STARLINK-5092,1 55408U 23014T   24032.49946943 -.00000135  00000-0 -35414-5 0  9994,2 55408  70.0004 198.9804 0002726 271.3366  88.7481 14.98328249 57131,6950.198,96.107,573.958,570.169,0.0
55408.0,STARLINK-5092,PAYLOAD,2024-02-02 12:01:15,14.9832888,0.0002715,69.9995,196.4545,266.2299,93.855,2.4332e-06,-6.4e-07,0.0,0 STARLINK-5092,1 55408U 23014T   24033.50086884 -.00000064  00000-0  24332-5 0  9993,2 55408  69.9995 196.4545 0002715 266.2299  93.8550 14.98328880 56345,6950.196,96.107,573.948,570.174,0.0
55408.0,STARLINK-5092,PAYLOAD,2024-02-02 13:37:23,14.98328888,0.0002727,69.9996,196.2862,265.1789,94.9058,2.0502e-06,-6.9e-07,0.0,0 STARLINK-5092,1 55408U 23014T   24033.56762879 -.00000069  00000-0  20502-5 0  9994,2 55408  69.9996 196.2862 0002727 265.1789  94.9058 14.98328888 57299,6950.196,96.107,573.957,570.166,0.0
55408.0,STARLINK-5092,PAYLOAD,2024-02-02 20:01:55,14.98328862,0.0002695,70.0008,195.6144,267.3414,92.7436,-2.3475e-06,-1.21e-06,0.0,0 STARLINK-5092,1 55408U 23014T   24033.83466935 -.00000121  00000-0 -23475-5 0  9990,2 55408  70.0008 195.6144 0002695 267.3414  92.7436 14.98328862 57338,6950.196,96.107,573.934,570.188,0.0
55408.0,STARLINK-5092,PAYLOAD,2024-02-03 12:03:15,14.98329116,0.0002846,70.0006,193.931,265.9165,94.1668,2.1248e-05,1.61e-06,0.0,0 STARLINK-5092,1 55408U 23014T   24034.50226824  .00000161  00000-0  21248-4 0  9993,2 55408  70.0006 193.9310 0002846 265.9165  94.1668 14.98329116 56499,6950.196,96.107,574.039,570.083,0.0
55408.0,STARLINK-5092,PAYLOAD,2024-02-03 13:39:24,14.98328819,0.0002869,70.0005,193.7627,266.4682,93.6149,1.9005e-05,1.34e-06,0.0,0 STARLINK-5092,1 55408U 23014T   24034.56902852  .00000134  00000-0  19005-4 0  9999,2 55408  70.0005 193.7627 0002869 266.4682  93.6149 14.98328819 57445,6950.197,96.107,574.056,570.068,0.0
55408.0,STARLINK-5092,PAYLOAD,2024-02-03 20:03:56,14.98330286,0.0002826,70.0008,193.0899,265.9872,94.0964,3.3966e-05,3.12e-06,0.0,0 STARLINK-5092,1 55408U 23014T   24034.83606723  .00000312  00000-0  33966-4 0  9997,2 55408  70.0008 193.0899 0002826 265.9872  94.0964 14.98330286 57485,6950.192,96.107,574.021,570.093,0.0
55408.0,STARLINK-5092,PAYLOAD,2024-02-04 12:05:16,14.98332056,0.0003009,70.0004,191.4062,272.9721,87.1094,1.7776e-05,1.19e-06,0.0,0 STARLINK-5092,1 55408U 23014T   24035.50366604  .00000119  00000-0  17776-4 0  9999,2 55408  70.0004 191.4062 0003009 272.9721  87.1094 14.98332056 56641,6950.187,96.107,574.143,569.96,0.0
55408.0,STARLINK-5092,PAYLOAD,2024-02-04 13:41:24,14.98331994,0.0003016,70.0004,191.2379,273.0608,87.0206,1.6787e-05,1.07e-06,0.0,0 STARLINK-5092,1 55408U 23014T   24035.57042599  .00000107  00000-0  16787-4 0  9998,2 55408  70.0004 191.2379 0003016 273.0608  87.0206 14.98331994 57593,6950.187,96.107,574.148,569.956,0.0
55408.0,STARLINK-5092,PAYLOAD,2024-02-04 20:05:56,14.9833406,0.0003004,70.0006,190.5649,273.7482,86.3334,3.9404e-05,3.77e-06,0.0,0 STARLINK-5092,1 55408U 23014T   24035.83746360  .00000377  00000-0  39404-4 0  9994,2 55408  70.0006 190.5649 0003004 273.7482  86.3334 14.98334060 57637,6950.18,96.107,574.133,569.958,0.0
55408.0,STARLINK-5092,PAYLOAD,2024-02-05 12:07:17,14.98329515,0.000299,70.0008,188.8819,273.6686,86.4131,-2.8593e-05,-4.34e-06,0.0,0 STARLINK-5092,1 55408U 23014T   24036.50506762 -.00000434  00000-0 -28593-4 0  9992,2 55408  70.0008 188.8819 0002990 273.6686  86.4131 14.98329515 56797,6950.194,96.107,574.137,569.981,0.0
55408.0,STARLINK-5092,PAYLOAD,2024-02-05 13:43:25,14.98329367,0.0002995,70.0008,188.7135,273.6298,86.4518,-2.9859e-05,-4.49e-06,0.0,0 STARLINK-5092,1 55408U 23014T   24036.57182772 -.00000449  00000-0 -29859-4 0  9992,2 55408  70.0008 188.7135 0002995 273.6298  86.4518 14.98329367 57741,6950.195,96.107,574.141,569.978,0.0
55408.0,STARLINK-5092,PAYLOAD,2024-02-05 20:07:57,14.9833184,0.0002977,70.0009,188.0405,274.3002,85.7817,1.5699e-07,-9.1e-07,0.0,0 STARLINK-5092,1 55408U 23014T   24036.83886519 -.00000091  00000-0  15699-6 0  9992,2 55408  70.0009 188.0405 0002977 274.3002  85.7817 14.98331840 57783,6950.187,96.107,574.121,569.983,0.0
55408.0,STARLINK-5092,PAYLOAD,2024-02-06 12:09:18,14.98334396,0.0002956,70.0012,186.358,276.2854,83.7968,1.2129e-05,5.2e-07,0.0,0 STARLINK-5092,1 55408U 23014T   24037.50646191  .00000052  00000-0  12129-4 0  9996,2 55408  70.0012 186.3580 0002956 276.2854  83.7968 14.98334396 56946,6950.179,96.107,574.099,569.99,0.0
55408.0,STARLINK-5092,PAYLOAD,2024-02-06 13:45:26,14.98334516,0.0002957,70.0012,186.1897,276.2472,83.835,1.3237e-05,6.5e-07,0.0,0 STARLINK-5092,1 55408U 23014T   24037.57322160  .00000065  00000-0  13237-4 0  9995,2 55408  70.0012 186.1897 0002957 276.2472  83.8350 14.98334516 57897,6950.179,96.107,574.099,569.989,0.0
55408.0,STARLINK-5092,PAYLOAD,2024-02-06 20:09:58,14.98337448,0.0002865,70.0014,185.5174,271.0511,89.032,4.1072e-05,3.97e-06,0.0,0 STARLINK-5092,1 55408U 23014T   24037.84025764  .00000397  00000-0  41072-4 0  9991,2 55408  70.0014 185.5174 0002865 271.0511  89.0320 14.98337448 57932,6950.17,96.107,574.026,570.044,0.0
55408.0,STARLINK-5092,PAYLOAD,2024-02-07 12:11:19,14.98324333,0.0002424,70.0027,183.8361,249.167,110.9229,-2.3013e-05,-3.67e-06,0.0,0 STARLINK-5092,1 55408U 23014T   24038.50786701 -.00000367  00000-0 -23013-4 0  9994,2 55408  70.0027 183.8361 0002424 249.1670 110.9229 14.98324333 57096,6950.21,96.107,573.76,570.391,0.0
55408.0,STARLINK-5092,PAYLOAD,2024-02-07 13:47:27,14.98324498,0.0002431,70.0025,183.668,248.1612,111.9289,-4.8536e-05,-6.72e-06,0.0,0 STARLINK-5092,1 55408U 23014T   24038.57462785 -.00000672  00000-0 -48536-4 0  9990,2 55408  70.0025 183.6680 0002431 248.1612 111.9289 14.98324498 58044,6950.21,96.107,573.765,570.385,0.0
55408.0,STARLINK-5092,PAYLOAD,2024-02-07 18:35:52,14.98321439,0.0002597,70.0022,183.1626,254.7043,105.3829,-6.868e-05,-9.12e-06,0.0,0 STARLINK-5092,1 55408U 23014T   24038.77491123 -.00000912  00000-0 -68680-4 0  9999,2 55408  70.0022 183.1626 0002597 254.7043 105.3829 14.98321439 58072,6950.219,96.108,573.889,570.279,0.0
55408.0,STARLINK-5092,PAYLOAD,2024-02-08 12:13:21,14.98318271,0.0003409,70.0008,181.3097,279.8762,80.2012,-0.00023807,-2.932e-05,0.0,0 STARLINK-5092,1 55408U 23014T   24039.50927345 -.00002932  00000-0 -23807-3 0  9996,2 55408  70.0008 181.3097 0003409 279.8762  80.2012 14.98318271 57240,6950.229,96.108,574.463,569.725,0.0
55408.0,STARLINK-5092,PAYLOAD,2024-02-08 13:49:29,14.98314552,0.0002236,70.0028,181.1425,256.1316,103.9595,-0.00020472,-2.534e-05,0.0,0 STARLINK-5092,1 55408U 23014T   24039.57603548 -.00002534  00000-0 -20472-3 0  9992,2 55408  70.0028 181.1425 0002236 256.1316 103.9595 14.98314552 58197,6950.241,96.108,573.66,570.552,0.0
55408.0,STARLINK-5092,PAYLOAD,2024-02-08 18:37:53,14.98319387,0.0002888,70.0011,180.6361,267.6313,92.4516,-0.00020265,-2.509e-05,0.0,0 STARLINK-5092,1 55408U 23014T   24039.77631306 -.00002509  00000-0 -20265-3 0  9999,2 55408  70.0011 180.6361 0002888 267.6313  92.4516 14.98319387 58229,6950.226,96.108,574.098,570.083,0.0
55408.0,STARLINK-5092,PAYLOAD,2024-02-09 12:15:21,14.98323846,0.0003595,69.9995,178.782,280.2764,79.7989,2.799e-05,2.41e-06,0.0,0 STARLINK-5092,1 55408U 23014T   24040.51066610  .00000241  00000-0  27990-4 0  9995,2 55408  69.9995 178.7820 0003595 280.2764  79.7989 14.98323846 57396,6950.212,96.107,574.576,569.578,0.0
55408.0,STARLINK-5092,PAYLOAD,2024-02-09 13:51:29,14.98326281,0.0003452,69.9996,178.6143,278.1509,81.9259,2.7857e-05,2.39e-06,0.0,0 STARLINK-5092,1 55408U 23014T   24040.57742460  .00000239  00000-0  27857-4 0  9994,2 55408  69.9996 178.6143 0003452 278.1509  81.9259 14.98326281 58346,6950.204,96.107,574.469,569.67,0.0
